CYGNUS NG-23            
1 65616U 25208A   26004.50044739  .00010369  00000+0  19540-3 0  9995
2 65616  51.6325  29.7776 0007569 339.7319  20.3368 15.49089728   227
DRAGONFLY               
1 65729U 98067XH  26004.30880880  .00314171  00000+0  14452-2 0  9990
2 65729  51.6225  19.4510 0008663  47.6135 312.5600 15.82138824 16726
1998-067XK              
1 65731U 98067XK  26004.29459911  .00133296  00000+0  10273-2 0  9992
2 65731  51.6285  22.4025 0005326  22.3820 337.7409 15.71025189 16682
RSP-03                  
1 65732U 98067XL  26004.43661165  .00204899  00000+0  12646-2 0  9999
2 65732  51.6255  20.3282 0006379  30.2800 329.8567 15.75963547 16733
GHS-01                  
1 65733U 98067XM  26004.26166620  .00458290  89113-4  15761-2 0  9991
2 65733  51.6250  18.3901 0009520  51.8673 308.3189 15.88983030 16748
YOTSUBA-KULOVER         
1 65941U 98067XN  26004.43823017  .00090302  00000+0  96587-3 0  9996
2 65941  51.6290  25.6160 0003614  53.1676 306.9649 15.63114387 13406
BOTAN                   
1 65942U 98067XP  26004.31672235  .00152239  00000+0  12886-2 0  9995
2 65942  51.6276  24.7989 0004438  42.1697 317.9640 15.68701576 13406
E-KAGAKU-1              
1 65943U 98067XQ  26004.43813659  .00087731  00000+0  93836-3 0  9995
2 65943  51.6302  25.6206 0002195  46.6951 313.4227 15.63131105 13401
HRC MONOBLOCK CAMERA    
1 66052U 98067XR  26004.40198584  .00040227  00000+0  57327-3 0  9991
2 66052  51.6308  28.3723 0001425 307.8103  52.2759 15.55907384 12362
HTV-X1                  
1 66174U 25241A   26004.50044739  .00010369  00000+0  19540-3 0  9992
2 66174  51.6325  29.7776 0007569 339.7319  20.3368 15.49089728   519
SHENZHOU-22             
1 66645U 25272A   26004.63858975  .00015464  00000+0  18794-3 0  9999
2 66645  41.4652 237.5900 0010669 219.4125 140.5938 15.60171241267499
